FLOCK 4G-1              
1 62666U 25009BK  26068.75951132  .00013534  00000+0  50654-3 0  9995
2 62666  97.4059 151.3158 0003180 323.1401  36.9619 15.27421081 63725
STARLINK-35986          
1 66853U 25281F   26068.13982282  .00025995  00000+0  95033-3 0  9995
2 66853  43.0001 346.3912 0001048 278.0103  82.0629 15.27597385 16107
